[Satellite]
VERSION=1.1
NAME=MEGSAT-1
NICKNAME=MEGSAT-1
TLE1=1 26546U 00057B   11059.17405096  .00000174  00000-0  37869-4 0  2119
TLE2=2 26546  64.5604 305.7654 0004040 222.7499 137.3313 14.84524658564354
